{
  "type": "FeatureCollection",
  "features": [
    {
      "type": "Feature",
      "properties": {
        "norad_id": 33805,
        "name": "COSMOS 2251 DEB",
        "group": "cosmos-2251-debris",
        "lat": -55.81681276808556,
        "lon": 170.38809161803613,
        "alt_km": 701.2388034214282,
        "timestamp": "2025-12-05T07:38:19.237838+00:00",
        "meta_object_name": "COSMOS 2251 DEB",
        "meta_object_id": "1993-036AW",
        "meta_epoch": "2025-12-04T09:08:17.702016",
        "meta_mean_motion": 14.57826778,
        "meta_eccentricity": 0.0060558,
        "meta_inclination": 74.0305,
        "meta_ra_of_asc_node": 327.2333,
        "meta_arg_of_pericenter": 158.5537,
        "meta_mean_anomaly": 201.8186,
        "meta_ephemeris_type": 0,
        "meta_classification_type": "U",
        "meta_norad_cat_id": 33805,
        "meta_element_set_no": 999,
        "meta_rev_at_epoch": 89105,
        "meta_bstar": 0.0004743,
        "meta_mean_motion_dot": 2.196e-05,
        "meta_mean_motion_ddot": 0,
        "tle_line1": "1 33805U 93036AW  25338.38076044  .00002196  00000+0  47430-3 0  9991",
        "tle_line2": "2 33805  74.0305 327.2333 0060558 158.5537 201.8186 14.57826778891055"
      },
      "geometry": {
        "type": "Point",
        "coordinates": [
          170.38809161803613,
          -55.81681276808556
        ]
      }
    },
    {
      "type": "Feature",
      "properties": {
        "norad_id": 33811,
        "name": "COSMOS 2251 DEB",
        "group": "cosmos-2251-debris",
        "lat": -67.93358049150449,
        "lon": -87.6340212163512,
        "alt_km": 567.4767167522086,
        "timestamp": "2025-12-05T07:38:19.237849+00:00",
        "meta_object_name": "COSMOS 2251 DEB",
        "meta_object_id": "1993-036BC",
        "meta_epoch": "2025-12-04T10:10:05.292768",
        "meta_mean_motion": 15.04854967,
        "meta_eccentricity": 0.0030828,
        "meta_inclination": 73.8372,
        "meta_ra_of_asc_node": 319.8988,
        "meta_arg_of_pericenter": 41.9423,
        "meta_mean_anomaly": 79.0541,
        "meta_ephemeris_type": 0,
        "meta_classification_type": "U",
        "meta_norad_cat_id": 33811,
        "meta_element_set_no": 999,
        "meta_rev_at_epoch": 89893,
        "meta_bstar": 0.0027407,
        "meta_mean_motion_dot": 0.00039337,
        "meta_mean_motion_ddot": 0,
        "tle_line1": "1 33811U 93036BC  25338.42367237  .00039337  00000+0  27407-2 0  9998",
        "tle_line2": "2 33811  73.8372 319.8988 0030828  41.9423  79.0541 15.04854967898930"
      },
      "geometry": {
        "type": "Point",
        "coordinates": [
          -87.6340212163512,
          -67.93358049150449
        ]
      }
    },
    {
      "type": "Feature",
      "properties": {
        "norad_id": 33815,
        "name": "COSMOS 2251 DEB",
        "group": "cosmos-2251-debris",
        "lat": 40.83898903692577,
        "lon": -153.4567027284681,
        "alt_km": 518.5782325033097,
        "timestamp": "2025-12-05T07:38:19.237860+00:00",
        "meta_object_name": "COSMOS 2251 DEB",
        "meta_object_id": "1993-036BG",
        "meta_epoch": "2025-12-04T00:16:31.408896",
        "meta_mean_motion": 15.14996402,
        "meta_eccentricity": 0.00042403,
        "meta_inclination": 73.9554,
        "meta_ra_of_asc_node": 194.871,
        "meta_arg_of_pericenter": 242.2418,
        "meta_mean_anomaly": 235.1772,
        "meta_ephemeris_type": 0,
        "meta_classification_type": "U",
        "meta_norad_cat_id": 33815,
        "meta_element_set_no": 999,
        "meta_rev_at_epoch": 88238,
        "meta_bstar": 0.011246177,
        "meta_mean_motion_dot": 0.00216461,
        "meta_mean_motion_ddot": 0,
        "tle_line1": "1 33815U 93036BG  25338.01147464  .00216461  00000+0  11246-1 0  9993",
        "tle_line2": "2 33815  73.9554 194.8710 0004240 242.2418 235.1772 15.14996402882385"
      },
      "geometry": {
        "type": "Point",
        "coordinates": [
          -153.4567027284681,
          40.83898903692577
        ]
      }
    },
    {
      "type": "Feature",
      "properties": {
        "norad_id": 33816,
        "name": "COSMOS 2251 DEB",
        "group": "cosmos-2251-debris",
        "lat": -73.84349662296765,
        "lon": 23.78038363247237,
        "alt_km": 1103.2039083628379,
        "timestamp": "2025-12-05T07:38:19.237870+00:00",
        "meta_object_name": "COSMOS 2251 DEB",
        "meta_object_id": "1993-036BH",
        "meta_epoch": "2025-12-04T12:59:13.301952",
        "meta_mean_motion": 13.81765043,
        "meta_eccentricity": 0.0265225,
        "meta_inclination": 73.8939,
        "meta_ra_of_asc_node": 119.2909,
        "meta_arg_of_pericenter": 133.8114,
        "meta_mean_anomaly": 228.5279,
        "meta_ephemeris_type": 0,
        "meta_classification_type": "U",
        "meta_norad_cat_id": 33816,
        "meta_element_set_no": 999,
        "meta_rev_at_epoch": 84560,
        "meta_bstar": 0.00099677,
        "meta_mean_motion_dot": 1.372e-05,
        "meta_mean_motion_ddot": 0,
        "tle_line1": "1 33816U 93036BH  25338.54112618  .00001372  00000+0  99677-3 0  9994",
        "tle_line2": "2 33816  73.8939 119.2909 0265225 133.8114 228.5279 13.81765043845602"
      },
      "geometry": {
        "type": "Point",
        "coordinates": [
          23.78038363247237,
          -73.84349662296765
        ]
      }
    },
    {
      "type": "Feature",
      "properties": {
        "norad_id": 33818,
        "name": "COSMOS 2251 DEB",
        "group": "cosmos-2251-debris",
        "lat": 52.41552883036844,
        "lon": -156.65239038512033,
        "alt_km": 534.9579337118121,
        "timestamp": "2025-12-05T07:38:19.237881+00:00",
        "meta_object_name": "COSMOS 2251 DEB",
        "meta_object_id": "1993-036BK",
        "meta_epoch": "2025-12-04T15:46:57.667296",
        "meta_mean_motion": 15.11588171,
        "meta_eccentricity": 0.0028943,
        "meta_inclination": 74.0748,
        "meta_ra_of_asc_node": 182.935,
        "meta_arg_of_pericenter": 174.4259,
        "meta_mean_anomaly": 247.7039,
        "meta_ephemeris_type": 0,
        "meta_classification_type": "U",
        "meta_norad_cat_id": 33818,
        "meta_element_set_no": 999,
        "meta_rev_at_epoch": 89740,
        "meta_bstar": 0.0044393,
        "meta_mean_motion_dot": 0.000769,
        "meta_mean_motion_ddot": 0,
        "tle_line1": "1 33818U 93036BK  25338.65761189  .00076900  00000+0  44393-2 0  9994",
        "tle_line2": "2 33818  74.0748 182.9350 0028943 174.4259 247.7039 15.11588171897409"
      },
      "geometry": {
        "type": "Point",
        "coordinates": [
          -156.65239038512033,
          52.41552883036844
        ]
      }
    },
    {
      "type": "Feature",
      "properties": {
        "norad_id": 33819,
        "name": "COSMOS 2251 DEB",
        "group": "cosmos-2251-debris",
        "lat": 26.28007848038157,
        "lon": 35.22045472937687,
        "alt_km": 756.4334046202312,
        "timestamp": "2025-12-05T07:38:19.237891+00:00",
        "meta_object_name": "COSMOS 2251 DEB",
        "meta_object_id": "1993-036BL",
        "meta_epoch": "2025-12-04T15:59:32.530272",
        "meta_mean_motion": 14.32178767,
        "meta_eccentricity": 0.0088771,
        "meta_inclination": 74.1796,
        "meta_ra_of_asc_node": 224.4476,
        "meta_arg_of_pericenter": 88.2348,
        "meta_mean_anomaly": 303.4518,
        "meta_ephemeris_type": 0,
        "meta_classification_type": "U",
        "meta_norad_cat_id": 33819,
        "meta_element_set_no": 999,
        "meta_rev_at_epoch": 87380,
        "meta_bstar": 0.0013354,
        "meta_mean_motion_dot": 3.734e-05,
        "meta_mean_motion_ddot": 0,
        "tle_line1": "1 33819U 93036BL  25338.66634873  .00003734  00000+0  13354-2 0  9993",
        "tle_line2": "2 33819  74.1796 224.4476 0088771  88.2348 303.4518 14.32178767873809"
      },
      "geometry": {
        "type": "Point",
        "coordinates": [
          35.22045472937687,
          26.28007848038157
        ]
      }
    },
    {
      "type": "Feature",
      "properties": {
        "norad_id": 33821,
        "name": "COSMOS 2251 DEB",
        "group": "cosmos-2251-debris",
        "lat": -50.49981275557292,
        "lon": -1.1514546744947365,
        "alt_km": 469.6026032377713,
        "timestamp": "2025-12-05T07:38:19.237902+00:00",
        "meta_object_name": "COSMOS 2251 DEB",
        "meta_object_id": "1993-036BN",
        "meta_epoch": "2025-12-04T13:17:46.626432",
        "meta_mean_motion": 15.24582154,
        "meta_eccentricity": 0.0054022,
        "meta_inclination": 74.0288,
        "meta_ra_of_asc_node": 160.1317,
        "meta_arg_of_pericenter": 195.7972,
        "meta_mean_anomaly": 164.1546,
        "meta_ephemeris_type": 0,
        "meta_classification_type": "U",
        "meta_norad_cat_id": 33821,
        "meta_element_set_no": 999,
        "meta_rev_at_epoch": 74876,
        "meta_bstar": 0.0021652,
        "meta_mean_motion_dot": 0.00056008,
        "meta_mean_motion_ddot": 0,
        "tle_line1": "1 33821U 93036BN  25338.55401188  .00056008  00000+0  21652-2 0  9997",
        "tle_line2": "2 33821  74.0288 160.1317 0054022 195.7972 164.1546 15.24582154748766"
      },
      "geometry": {
        "type": "Point",
        "coordinates": [
          -1.1514546744947365,
          -50.49981275557292
        ]
      }
    }
  ]
}